[{"OBJECT_NAME":"KUIPER-00021","OBJECT_ID":"2025-088N","EPOCH":"2026-03-09T12:22:26.635584","MEAN_MOTION":14.79971319,"ECCENTRICITY":0.00034919,"INCLINATION":51.8994,"RA_OF_ASC_NODE":104.8534,"ARG_OF_PERICENTER":82.7512,"MEAN_ANOMALY":277.3847,"EPHEMERIS_TYPE":0,"CLASSIFICATION_TYPE":"U","NORAD_CAT_ID":63736,"ELEMENT_SET_NO":999,"REV_AT_EPOCH":4745,"BSTAR":0.0006549213,"MEAN_MOTION_DOT":4.779e-5,"MEAN_MOTION_DDOT":0},{"OBJECT_NAME":"ORSTED","OBJECT_ID":"1999-008B","EPOCH":"2026-03-09T17:21:14.075712","MEAN_MOTION":14.51680933,"ECCENTRICITY":0.01330709,"INCLINATION":96.4811,"RA_OF_ASC_NODE":358.8375,"ARG_OF_PERICENTER":145.0719,"MEAN_ANOMALY":215.9303,"EPHEMERIS_TYPE":0,"CLASSIFICATION_TYPE":"U","NORAD_CAT_ID":25635,"ELEMENT_SET_NO":999,"REV_AT_EPOCH":42753,"BSTAR":0.00016967851,"MEAN_MOTION_DOT":7.32e-6,"MEAN_MOTION_DDOT":0}]
